start=new Date('2023-05-24T00:00:00.000Z').valueOf();
sats=[{"PERIOD":"95.920","NORAD_CAT_ID":"53668","EPHEMERIS_TYPE":"0","COUNTRY_CODE":"US","RCS_SIZE":"LARGE","OBJECT_TYPE":"PAYLOAD","CLASSIFICATION_TYPE":"U","OBJECT_NAME":"STARLINK-4458","PERIAPSIS":"562.554","ECCENTRICITY":"0.00006780","SEMIMAJOR_AXIS":"6941.159","MEAN_ANOMALY":"205.2969","ARG_OF_PERICENTER":"154.8288","FILE":"3915766","DECAY_DATE":null,"MEAN_ELEMENT_THEORY":"SGP4","MEAN_MOTION_DOT":"0.00001406","REF_FRAME":"TEME","MEAN_MOTION":"15.01255938","INCLINATION":"97.6569","OBJECT_ID":"2022-105W","REV_AT_EPOCH":"4004","EPOCH":"2023-05-23T15:10:45.738912","ELEMENT_SET_NO":"999","TIME_SYSTEM":"UTC","MEAN_MOTION_DDOT":"0.0000000000000","BSTAR":"0.00011408000000","GP_ID":"232405235","TLE_LINE2":"2 53668  97.6569  25.0421 0000678 154.8288 205.2969 15.01255938 40043","CENTER_NAME":"EARTH","APOAPSIS":"563.495","SITE":"AFWTR","RA_OF_ASC_NODE":"25.0421","TLE_LINE1":"1 53668U 22105W   23143.63247383  .00001406  00000-0  11408-3 0  9995","LAUNCH_DATE":"2022-08-31"},{"ARG_OF_PERICENTER":"139.2175","MEAN_ANOMALY":"220.9091","DECAY_DATE":null,"MEAN_ELEMENT_THEORY":"SGP4","MEAN_MOTION_DOT":"0.00002045","MEAN_MOTION":"15.01256153","REF_FRAME":"TEME","FILE":"3915766","CLASSIFICATION_TYPE":"U","OBJECT_TYPE":"PAYLOAD","COUNTRY_CODE":"US","RCS_SIZE":"LARGE","NORAD_CAT_ID":"53669","PERIOD":"95.920","EPHEMERIS_TYPE":"0","SEMIMAJOR_AXIS":"6941.159","PERIAPSIS":"562.639","OBJECT_NAME":"STARLINK-4464","ECCENTRICITY":"0.00005540","RA_OF_ASC_NODE":"25.0432","CENTER_NAME":"EARTH","TLE_LINE2":"2 53669  97.6567  25.0432 0000554 139.2175 220.9091 15.01256153 40049","SITE":"AFWTR","APOAPSIS":"563.408","LAUNCH_DATE":"2022-08-31","TLE_LINE1":"1 53669U 22105X   23143.63432677  .00002045  00000-0  16379-3 0  9990","ELEMENT_SET_NO":"999","EPOCH":"2023-05-23T15:13:25.832928","TIME_SYSTEM":"UTC","INCLINATION":"97.6567","REV_AT_EPOCH":"4004","OBJECT_ID":"2022-105X","GP_ID":"232405987","BSTAR":"0.00016379000000","MEAN_MOTION_DDOT":"0.0000000000000"},{"MEAN_MOTION_DDOT":"0.0000000000000","GP_ID":"232406236","BSTAR":"0.00017640000000","INCLINATION":"97.6579","REV_AT_EPOCH":"4004","OBJECT_ID":"2022-105Y","ELEMENT_SET_NO":"999","EPOCH":"2023-05-23T15:05:25.930176","TIME_SYSTEM":"UTC","TLE_LINE1":"1 53670U 22105Y   23143.62877234  .00002207  00000-0  17640-3 0  9995","LAUNCH_DATE":"2022-08-31","CENTER_NAME":"EARTH","TLE_LINE2":"2 53670  97.6579  25.0411 0001525  89.0373 271.1026 15.01258671 40045","APOAPSIS":"564.074","SITE":"AFWTR","RA_OF_ASC_NODE":"25.0411","PERIAPSIS":"561.957","OBJECT_NAME":"STARLINK-4459","ECCENTRICITY":"0.00015250","SEMIMAJOR_AXIS":"6941.151","NORAD_CAT_ID":"53670","PERIOD":"95.920","EPHEMERIS_TYPE":"0","CLASSIFICATION_TYPE":"U","RCS_SIZE":"LARGE","COUNTRY_CODE":"US","OBJECT_TYPE":"PAYLOAD","FILE":"3915766","MEAN_ELEMENT_THEORY":"SGP4","DECAY_DATE":null,"MEAN_MOTION_DOT":"0.00002207","REF_FRAME":"TEME","MEAN_MOTION":"15.01258671","MEAN_ANOMALY":"271.1026","ARG_OF_PERICENTER":"89.0373"},{"CENTER_NAME":"EARTH","TLE_LINE2":"2 53671  97.6570  25.0478 0001995  81.0259 279.1191 15.01251622 40046","APOAPSIS":"564.422","SITE":"AFWTR","RA_OF_ASC_NODE":"25.0478","TLE_LINE1":"1 53671U 22105Z   23143.62902344  .00000794  00000-0  66386-4 0  9998","LAUNCH_DATE":"2022-08-31","OBJECT_ID":"2022-105Z","INCLINATION":"97.6570","REV_AT_EPOCH":"4004","ELEMENT_SET_NO":"999","EPOCH":"2023-05-23T15:05:47.625216","TIME_SYSTEM":"UTC","MEAN_MOTION_DDOT":"0.0000000000000","GP_ID":"232404485","BSTAR":"0.00006638600000","MEAN_ANOMALY":"279.1191","ARG_OF_PERICENTER":"81.0259","FILE":"3915766","DECAY_DATE":null,"MEAN_ELEMENT_THEORY":"SGP4","MEAN_MOTION":"15.01251622","MEAN_MOTION_DOT":"0.00000794","REF_FRAME":"TEME","NORAD_CAT_ID":"53671","PERIOD":"95.920","EPHEMERIS_TYPE":"0","CLASSIFICATION_TYPE":"U","RCS_SIZE":"LARGE","COUNTRY_CODE":"US","OBJECT_TYPE":"PAYLOAD","PERIAPSIS":"561.653","OBJECT_NAME":"STARLINK-4440","ECCENTRICITY":"0.00019950","SEMIMAJOR_AXIS":"6941.173"},{"SEMIMAJOR_AXIS":"6941.722","ECCENTRICITY":"0.00023250","OBJECT_NAME":"STARLINK-4428","PERIAPSIS":"561.973","COUNTRY_CODE":"US","RCS_SIZE":"LARGE","OBJECT_TYPE":"PAYLOAD","CLASSIFICATION_TYPE":"U","EPHEMERIS_TYPE":"0","PERIOD":"95.931","NORAD_CAT_ID":"53672","MEAN_MOTION_DOT":"0.00038106","REF_FRAME":"TEME","MEAN_MOTION":"15.01073283","DECAY_DATE":null,"MEAN_ELEMENT_THEORY":"SGP4","FILE":"3915766","ARG_OF_PERICENTER":"95.0361","MEAN_ANOMALY":"265.1128","BSTAR":"0.00296980000000","GP_ID":"232404735","MEAN_MOTION_DDOT":"0.0000000000000","TIME_SYSTEM":"UTC","EPOCH":"2023-05-23T15:03:06.774336","ELEMENT_SET_NO":"999","INCLINATION":"97.6590","OBJECT_ID":"2022-105AA","REV_AT_EPOCH":"4004","LAUNCH_DATE":"2022-08-31","TLE_LINE1":"1 53672U 22105AA  23143.62716174  .00038106  00000-0  29698-2 0  9994","RA_OF_ASC_NODE":"25.0405","SITE":"AFWTR","APOAPSIS":"565.201","TLE_LINE2":"2 53672  97.6590  25.0405 0002325  95.0361 265.1128 15.01073283 40046","CENTER_NAME":"EARTH"},{"ARG_OF_PERICENTER":"93.0482","MEAN_ANOMALY":"267.1159","MEAN_MOTION":"15.00448049","MEAN_MOTION_DOT":"0.00000655","REF_FRAME":"TEME","MEAN_ELEMENT_THEORY":"SGP4","DECAY_DATE":null,"FILE":"3915766","CLASSIFICATION_TYPE":"U","COUNTRY_CODE":"US","OBJECT_TYPE":"PAYLOAD","RCS_SIZE":"LARGE","EPHEMERIS_TYPE":"0","NORAD_CAT_ID":"53673","PERIOD":"95.971","SEMIMAJOR_AXIS":"6943.651","ECCENTRICITY":"0.00036450","PERIAPSIS":"562.985","OBJECT_NAME":"STARLINK-4456","RA_OF_ASC_NODE":"25.7628","APOAPSIS":"568.047","SITE":"AFWTR","CENTER_NAME":"EARTH","TLE_LINE2":"2 53673  97.6567  25.7628 0003645  93.0482 267.1159 15.00448049 40112","LAUNCH_DATE":"2022-08-31","TLE_LINE1":"1 53673U 22105AB  23143.93693307  .00000655  00000-0  56785-4 0  9998","TIME_SYSTEM":"UTC","ELEMENT_SET_NO":"999","EPOCH":"2023-05-23T22:29:11.017248","INCLINATION":"97.6567","OBJECT_ID":"2022-105AB","REV_AT_EPOCH":"4011","GP_ID":"232405487","BSTAR":"0.00005678500000","MEAN_MOTION_DDOT":"0.0000000000000"},{"TLE_LINE1":"1 53674U 22105AC  23143.95647890  .00002221  00000-0  17742-3 0  9997","LAUNCH_DATE":"2022-08-31","CENTER_NAME":"EARTH","TLE_LINE2":"2 53674  97.6595  25.3711 0002019  89.1846 270.9610 15.01263259 40097","APOAPSIS":"564.403","SITE":"AFWTR","RA_OF_ASC_NODE":"25.3711","MEAN_MOTION_DDOT":"0.0000000000000","GP_ID":"232405736","BSTAR":"0.00017742000000","INCLINATION":"97.6595","REV_AT_EPOCH":"4009","OBJECT_ID":"2022-105AC","ELEMENT_SET_NO":"999","EPOCH":"2023-05-23T22:57:19.776960","TIME_SYSTEM":"UTC","FILE":"3915766","DECAY_DATE":null,"MEAN_ELEMENT_THEORY":"SGP4","MEAN_MOTION_DOT":"0.00002221","MEAN_MOTION":"15.01263259","REF_FRAME":"TEME","MEAN_ANOMALY":"270.9610","ARG_OF_PERICENTER":"89.1846","PERIAPSIS":"561.600","OBJECT_NAME":"STARLINK-4620","ECCENTRICITY":"0.00020190","SEMIMAJOR_AXIS":"6941.137","PERIOD":"95.919","NORAD_CAT_ID":"53674","EPHEMERIS_TYPE":"0","CLASSIFICATION_TYPE":"U","COUNTRY_CODE":"US","RCS_SIZE":"LARGE","OBJECT_TYPE":"PAYLOAD"},{"BSTAR":"0.00016326000000","GP_ID":"232404986","MEAN_MOTION_DDOT":"0.0000000000000","EPOCH":"2023-05-23T15:02:46.086720","ELEMENT_SET_NO":"999","TIME_SYSTEM":"UTC","INCLINATION":"97.6588","OBJECT_ID":"2022-105AD","REV_AT_EPOCH":"4004","LAUNCH_DATE":"2022-08-31","TLE_LINE1":"1 53675U 22105AD  23143.62692230  .00002038  00000-0  16326-3 0  9993","RA_OF_ASC_NODE":"25.0408","TLE_LINE2":"2 53675  97.6588  25.0408 0001790 101.3455 258.7970 15.01255413 40049","CENTER_NAME":"EARTH","APOAPSIS":"564.268","SITE":"AFWTR","SEMIMAJOR_AXIS":"6941.161","OBJECT_NAME":"STARLINK-4617","PERIAPSIS":"561.784","ECCENTRICITY":"0.00017900","RCS_SIZE":"LARGE","COUNTRY_CODE":"US","OBJECT_TYPE":"PAYLOAD","CLASSIFICATION_TYPE":"U","NORAD_CAT_ID":"53675","PERIOD":"95.920","EPHEMERIS_TYPE":"0","DECAY_DATE":null,"MEAN_ELEMENT_THEORY":"SGP4","MEAN_MOTION_DOT":"0.00002038","MEAN_MOTION":"15.01255413","REF_FRAME":"TEME","FILE":"3915766","ARG_OF_PERICENTER":"101.3455","MEAN_ANOMALY":"258.7970"},{"INCLINATION":"97.6588","OBJECT_ID":"2022-105AE","REV_AT_EPOCH":"4009","TIME_SYSTEM":"UTC","ELEMENT_SET_NO":"999","EPOCH":"2023-05-23T22:52:00.276672","MEAN_MOTION_DDOT":"0.0000000000000","GP_ID":"232405236","BSTAR":"0.00013763000000","SITE":"AFWTR","APOAPSIS":"564.528","CENTER_NAME":"EARTH","TLE_LINE2":"2 53676  97.6588  25.3709 0002184  96.6771 263.4702 15.01260082 40091","RA_OF_ASC_NODE":"25.3709","TLE_LINE1":"1 53676U 22105AE  23143.95278098  .00001709  00000-0  13763-3 0  9998","LAUNCH_DATE":"2022-08-31","EPHEMERIS_TYPE":"0","PERIOD":"95.919","NORAD_CAT_ID":"53676","CLASSIFICATION_TYPE":"U","OBJECT_TYPE":"PAYLOAD","COUNTRY_CODE":"US","RCS_SIZE":"LARGE","ECCENTRICITY":"0.00021840","PERIAPSIS":"561.496","OBJECT_NAME":"STARLINK-4621","SEMIMAJOR_AXIS":"6941.147","MEAN_ANOMALY":"263.4702","ARG_OF_PERICENTER":"96.6771","FILE":"3915766","MEAN_MOTION_DOT":"0.00001709","MEAN_MOTION":"15.01260082","REF_FRAME":"TEME","DECAY_DATE":null,"MEAN_ELEMENT_THEORY":"SGP4"},{"FILE":"3915766","DECAY_DATE":null,"MEAN_ELEMENT_THEORY":"SGP4","MEAN_MOTION":"15.01254256","MEAN_MOTION_DOT":"0.00001005","REF_FRAME":"TEME","MEAN_ANOMALY":"260.6864","ARG_OF_PERICENTER":"99.4552","OBJECT_NAME":"STARLINK-4579","PERIAPSIS":"561.846","ECCENTRICITY":"0.00017050","SEMIMAJOR_AXIS":"6941.165","PERIOD":"95.920","NORAD_CAT_ID":"53677","EPHEMERIS_TYPE":"0","RCS_SIZE":"LARGE","COUNTRY_CODE":"US","OBJECT_TYPE":"PAYLOAD","CLASSIFICATION_TYPE":"U","TLE_LINE1":"1 53677U 22105AF  23143.62507357  .00001005  00000-0  82841-4 0  9999","LAUNCH_DATE":"2022-08-31","TLE_LINE2":"2 53677  97.6601  25.0419 0001705  99.4552 260.6864 15.01254256 40048","CENTER_NAME":"EARTH","APOAPSIS":"564.213","SITE":"AFWTR","RA_OF_ASC_NODE":"25.0419","MEAN_MOTION_DDOT":"0.0000000000000","BSTAR":"0.00008284100000","GP_ID":"232405988","OBJECT_ID":"2022-105AF","INCLINATION":"97.6601","REV_AT_EPOCH":"4004","EPOCH":"2023-05-23T15:00:06.356448","ELEMENT_SET_NO":"999","TIME_SYSTEM":"UTC"}];
